GPS BIIA-23 (PRN 18)    
1 22877U 93068A   18232.85919983 -.00000044  00000-0  00000+0 0  9998
2 22877  54.4700  80.8491 0146865  76.4225 220.0651  2.00568234181842
GPS BIIR-2  (PRN 13)    
1 24876U 97035A   18232.84175736  .00000043  00000-0  00000+0 0  9994
2 24876  55.4846 210.2308 0030908  85.1814 275.1596  2.00564485154441
GPS BIIR-3  (PRN 11)    
1 25933U 99055A   18232.89847799 -.00000056  00000-0  00000+0 0  9998
2 25933  51.9332  58.8709 0168033 103.3964 224.2174  2.00565843138266
GPS BIIR-4  (PRN 20)    
1 26360U 00025A   18232.79046925 -.00000063  00000-0  00000+0 0  9991
2 26360  53.2189 136.9724 0039574 120.6831 175.6895  2.00563227133957
GPS BIIR-5  (PRN 28)    
1 26407U 00040A   18232.77761843 -.00000094  00000-0  00000+0 0  9995
2 26407  56.4441 328.3708 0197578 273.0499 351.9756  2.00562742132636
GPS BIIR-6  (PRN 14)    
1 26605U 00071A   18232.85935745  .00000038  00000-0  00000+0 0  9999
2 26605  55.0579 207.7962 0102899 249.1080 341.5911  2.00569994130235
GPS BIIR-8  (PRN 16)    
1 27663U 03005A   18232.34007878 -.00000095  00000-0  00000+0 0  9999
2 27663  56.5080 328.1484 0098580  28.8664  40.4110  2.00563157113985
GPS BIIR-9  (PRN 21)    
1 27704U 03010A   18232.79796720 -.00000046  00000-0  00000+0 0  9997
2 27704  54.1414  80.4171 0245401 272.0695  87.4833  2.00566774112799
GPS BIIR-10 (PRN 22)    
1 28129U 03058A   18232.53834272 -.00000062  00000-0  00000+0 0  9996
2 28129  53.0319 139.8255 0073917 274.3052  84.8742  2.00555727107484
GPS BIIR-11 (PRN 19)    
1 28190U 04009A   18232.79161237 -.00000072  00000-0  00000+0 0  9994
2 28190  56.1966  28.9585 0095529  71.8513 109.5987  2.00558457105660
GPS BIIR-12 (PRN 23)    
1 28361U 04023A   18232.91396253  .00000026  00000-0  00000+0 0  9990
2 28361  54.0605 202.4692 0128303 227.0376 319.1723  2.00554702103758
GPS BIIR-13 (PRN 02)    
1 28474U 04045A   18232.67180681 -.00000046  00000-0  00000+0 0  9991
2 28474  54.5080  80.0610 0181896 254.8758 115.4298  2.00549312101116
GPS BIIRM-1 (PRN 17)    
1 28874U 05038A   18232.59482759 -.00000074  00000-0  00000+0 0  9991
2 28874  56.3348  26.2843 0127058 258.3179 166.3685  2.00572610 94510
GPS BIIRM-2 (PRN 31)    
1 29486U 06042A   18232.80578194  .00000037  00000-0  00000+0 0  9998
2 29486  55.1457 265.0785 0088587 351.6202 147.9471  2.00558035 87237
GPS BIIRM-3 (PRN 12)    
1 29601U 06052A   18232.55203592 -.00000093  00000-0  00000+0 0  9990
2 29601  56.4842 327.0567 0068512  57.7184 302.9755  2.00551053 86144
GPS BIIRM-4 (PRN 15)    
1 32260U 07047A   18232.38020572  .00000023  00000-0  00000+0 0  9998
2 32260  53.1846 198.4553 0103838  39.0250 321.6957  2.00548500 79529
GPS BIIRM-5 (PRN 29)    
1 32384U 07062A   18232.73778047 -.00000074  00000-0  00000+0 0  9995
2 32384  56.4104  26.8928 0005981  86.3233 309.3535  2.00567476 78263
GPS BIIRM-6 (PRN 07)    
1 32711U 08012A   18232.28655978  .00000034  00000-0  00000+0 0  9997
2 32711  54.8808 264.3622 0121656 217.5958 141.6088  2.00566797 76432
GPS BIIRM-8 (PRN 05)    
1 35752U 09043A   18232.65464494 -.00000060  00000-0  00000+0 0  9992
2 35752  54.3337 142.0968 0054377  35.9287 257.3556  2.00552462 66022
GPS BIIF-1  (PRN 25)    
1 36585U 10022A   18232.20093744 -.00000091  00000-0  00000+0 0  9997
2 36585  55.7729 323.5865 0072720  48.6507  22.9567  2.00571982 60263
GPS BIIF-2  (PRN 01)    
1 37753U 11036A   18232.46191109 -.00000045  00000-0  00000+0 0  9992
2 37753  55.7063  83.6734 0079309  37.7080 307.7579  2.00564760 51955
GPS BIIF-3  (PRN 24)    
1 38833U 12053A   18232.46670368  .00000038  00000-0  00000+0 0  9992
2 38833  53.9119 260.8490 0070055  28.9182 331.5277  2.00568033 43025
GPS BIIF-4  (PRN 27)    
1 39166U 13023A   18232.82533899 -.00000079  00000-0  00000+0 0  9993
2 39166  56.0294  23.1505 0059229  24.2090 336.0793  2.00562077 38565
GPS BIIF-5  (PRN 30)    
1 39533U 14008A   18232.32681994  .00000028  00000-0  00000+0 0  9993
2 39533  54.0538 266.2137 0036611 192.1329 167.8414  2.00560290 32911
GPS BIIF-6  (PRN 06)    
1 39741U 14026A   18232.60412930 -.00000043  00000-0  00000+0 0  9995
2 39741  55.6892  83.1910 0011939 293.1127  66.8365  2.00562634 31209
GPS BIIF-7  (PRN 09)    
1 40105U 14045A   18232.19417985  .00000035  00000-0  00000+0 0  9991
2 40105  54.5867 202.6375 0007195 106.0184 254.0422  2.00576363 29646
GPS BIIF-8  (PRN 03)    
1 40294U 14068A   18232.07123855 -.00000057  00000-0  00000+0 0  9997
2 40294  55.0850 143.4372 0015418  25.4361 334.6581  2.00560851 27868
GPS BIIF-9  (PRN 26)    
1 40534U 15013A   18231.70688410 -.00000092  00000-0  00000-0 0  9997
2 40534  54.7119 322.2616 0028248   0.1405 359.8984  2.00559938 24497
GPS BIIF-10  (PRN 08)   
1 40730U 15033A   18232.86481043 -.00000081  00000-0  00000+0 0  9995
2 40730  55.5588  22.6254 0035696 333.6418  26.1880  2.00571104 22706
GPS BIIF-11  (PRN 10)   
1 41019U 15062A   18232.41791124 -.00000058  00000-0  00000+0 0  9997
2 41019  55.0894 143.2284 0037951 203.8721 155.9707  2.00564509 20513
GPS BIIF-12  (PRN 32)   
1 41328U 16007A   18232.50602068  .00000033  00000-0  00000+0 0  9990
2 41328  54.8360 202.9329 0024415 219.5517 140.2512  2.00560754 18574
